H1 CPF 01  gfz 2022 07 25 12  7062 tandemx   
H2 1003001  6202 36605    2022 07 25 12 59 42 2022 07 30 00 00 42   120 1 1  0 0 0
H9
10 0 59787  72702.000000  0   -5793459.530   3724540.887   -176339.238
10 0 59787  72822.000000  0   -5627121.291   3828602.122  -1077140.811
10 0 59787  72942.000000  0   -5361314.166   3862023.391  -1958999.193
10 0 59787  73062.000000  0   -5002014.046   3822588.106  -2806432.540
10 0 59787  73182.000000  0   -4556858.110   3709479.714  -3604596.721
10 0 59787  73302.000000  0   -4034975.263   3523316.301  -4339547.415
10 0 59787  73422.000000  0   -3446791.487   3266156.429  -4998481.230
10 0 59787  73542.000000  0   -2803814.378   2941476.077  -5569952.049
10 0 59787  73662.000000  0   -2118404.385   2554118.992  -6044060.722
10 0 59787  73782.000000  0   -1403533.989   2110220.576  -6412616.831
10 0 59787  73902.000000  0    -672541.826   1617107.038  -6669267.687
10 0 59787  74022.000000  0      61112.888   1083173.546  -6809596.958
10 0 59787  74142.000000  0     784092.250    517742.433  -6831192.030
10 0 59787  74262.000000  0    1483416.558    -69096.126  -6733682.755
10 0 59787  74382.000000  0    2146692.583   -666660.535  -6518746.012
10 0 59787  74502.000000  0    2762327.742  -1263866.888  -6190079.904
10 0 59787  74622.000000  0    3319730.155  -1849429.294  -5753346.855
10 0 59787  74742.000000  0    3809490.535  -2412068.155  -5216086.971
10 0 59787  74862.000000  0    4223545.325  -2940726.217  -4587599.447
10 0 59787  74982.000000  0    4555313.895  -3424785.953  -3878791.408
10 0 59787  75102.000000  0    4799809.308  -3854283.399  -3101998.700
10 0 59787  75222.000000  0    4953721.252  -4220115.836  -2270778.694
10 0 59787  75342.000000  0    5015466.858  -4514237.428  -1399676.856
10 0 59787  75462.000000  0    4985208.131  -4729838.507   -503971.904
10 0 59787  75582.000000  0    4864833.512  -4861503.431    400596.753
10 0 59787  75702.000000  0    4657904.204  -4905341.653   1298112.796
10 0 59787  75822.000000  0    4369566.514  -4859088.225   2172772.304
10 0 59787  75942.000000  0    4006431.532  -4722171.572   3009170.384
10 0 59787  76062.000000  0    3576426.980  -4495747.240   3792580.129
10 0 59787  76182.000000  0    3088623.139  -4182696.061   4509217.785
10 0 59787  76302.000000  0    2553038.729  -3787586.789   5146488.032
10 0 59787  76422.000000  0    1980431.872  -3316605.505   5693204.987
10 0 59787  76542.000000  0    1382080.273  -2777453.065   6139786.345
10 0 59787  76662.000000  0     769556.065  -2179213.137   6478415.617
10 0 59787  76782.000000  0     154500.279  -1532195.093   6703172.624
10 0 59787  76902.000000  0    -451598.459   -847753.841   6810131.071
10 0 59787  77022.000000  0   -1037617.456   -138088.724   6797423.080
10 0 59787  77142.000000  0   -1593003.257    583973.920   6665269.546
10 0 59787  77262.000000  0   -2107961.136   1305212.051   6415976.437
10 0 59787  77382.000000  0   -2573628.076   2012249.107   6053897.074
10 0 59787  77502.000000  0   -2982226.389   2691801.746   5585361.012
10 0 59787  77622.000000  0   -3327196.231   3330930.901   5018569.935
10 0 59787  77742.000000  0   -3603304.919   3917290.947   4363460.097
10 0 59787  77862.000000  0   -3806729.942   4439373.113   3631533.162
10 0 59787  77982.000000  0   -3935113.761   4886737.587   2835656.853
10 0 59787  78102.000000  0   -3987589.096   5250228.642   1989837.777
10 0 59787  78222.000000  0   -3964772.857   5522166.440   1108971.410
10 0 59787  78342.000000  0   -3868730.519   5696512.077    208574.957
10 0 59787  78462.000000  0   -3702911.589   5769002.441   -695493.946
10 0 59787  78582.000000  0   -3472055.128   5737248.536  -1587327.210
10 0 59787  78702.000000  0   -3182068.955   5600794.498  -2451256.241
10 0 59787  78822.000000  0   -2839884.581   5361137.221  -3272133.550
10 0 59787  78942.000000  0   -2453295.621   5021706.994  -4035601.551
10 0 59787  79062.000000  0   -2030782.159   4587809.545  -4728343.440
10 0 59787  79182.000000  0   -1581325.580   4066532.723  -5338309.740
10 0 59787  79302.000000  0   -1114219.658   3466622.406  -5854919.989
10 0 59787  79422.000000  0    -638880.176   2798327.894  -6269237.702
10 0 59787  79542.000000  0    -164657.280   2073220.316  -6574113.620
10 0 59787  79662.000000  0     299344.401   1303990.307  -6764297.183
10 0 59787  79782.000000  0     744435.651    504227.199  -6836518.218
10 0 59787  79902.000000  0    1162501.714   -311817.058  -6789537.279
10 0 59787  80022.000000  0    1546146.338  -1129477.024  -6624163.478
10 0 59787  80142.000000  0    1888818.961  -1933930.133  -6343241.098
10 0 59787  80262.000000  0    2184925.049  -2710458.263  -5951606.559
10 0 59787  80382.000000  0    2429917.277  -3444712.348  -5456015.510
10 0 59787  80502.000000  0    2620367.061  -4122978.230  -4865037.564
10 0 59787  80622.000000  0    2754013.244  -4732434.147  -4188917.147
10 0 59787  80742.000000  0    2829787.647  -5261396.244  -3439406.896
10 0 59787  80862.000000  0    2847817.132  -5699550.964  -2629572.949
10 0 59787  80982.000000  0    2809401.553  -6038165.739  -1773571.999
10 0 59787  81102.000000  0    2716968.247  -6270273.279   -886405.329
10 0 59787  81222.000000  0    2574001.652  -6390824.063     16347.898
10 0 59787  81342.000000  0    2384950.042  -6396800.592    918810.557
10 0 59787  81462.000000  0    2155112.932  -6287292.847   1805094.276
10 0 59787  81582.000000  0    1890510.383  -6063530.833   2659589.661
10 0 59787  81702.000000  0    1597737.953  -5728872.274   3467249.490
10 0 59787  81822.000000  0    1283811.617  -5288748.166   4213859.597
10 0 59787  81942.000000  0     956006.469  -4750567.878   4886292.120
10 0 59787  82062.000000  0     621693.428  -4123586.984   5472738.100
10 0 59787  82182.000000  0     288176.747  -3418737.952   5962914.057
10 0 59787  82302.000000  0     -37462.004  -2648429.447   6348237.079
10 0 59787  82422.000000  0    -348511.347  -1826321.640   6621967.898
10 0 59787  82542.000000  0    -638765.412   -967081.091   6779322.734
10 0 59787  82662.000000  0    -902645.906    -86117.444   6817553.035
10 0 59787  82782.000000  0   -1135308.352    800693.865   6735990.827
10 0 59787  82902.000000  0   -1332730.585   1677297.418   6536059.286
10 0 59787  83022.000000  0   -1491782.165   2527747.758   6221249.449
10 0 59787  83142.000000  0   -1610274.333   3336499.635   5797063.081
10 0 59787  83262.000000  0   -1686989.257   4088693.838   5270921.573
10 0 59787  83382.000000  0   -1721687.905   4770434.329   4652043.037
10 0 59787  83502.000000  0   -1715097.255   5369052.247   3951286.122
10 0 59787  83622.000000  0   -1668875.608   5873349.810   3180962.899
10 0 59787  83742.000000  0   -1585558.602   6273818.858   2354623.630
10 0 59787  83862.000000  0   -1468485.487   6562829.724   1486816.386
10 0 59787  83982.000000  0   -1321706.163   6734784.589    592825.715
10 0 59787  84102.000000  0   -1149872.782   6786230.778   -311603.138
10 0 59787  84222.000000  0    -958118.690   6715933.338  -1210550.215
10 0 59787  84342.000000  0    -751926.403   6524900.600  -2088212.639
10 0 59787  84462.000000  0    -536990.080   6216361.536  -2929190.305
10 0 59787  84582.000000  0    -319076.050   5795700.480  -3718759.355
10 0 59787  84702.000000  0    -103883.918   5270351.991  -4443130.588
10 0 59787  84822.000000  0     103088.177   4649657.180  -5089688.034
10 0 59787  84942.000000  0     296671.231   3944686.140  -5647202.797
10 0 59787  85062.000000  0     472142.987   3168030.405  -6106019.753
10 0 59787  85182.000000  0     625332.467   2333570.346  -6458213.779
10 0 59787  85302.000000  0     752710.118   1456224.114  -6697714.707
10 0 59787  85422.000000  0     851462.304    551682.123  -6820401.750
10 0 59787  85542.000000  0     919548.576   -363869.643  -6824166.911
10 0 59787  85662.000000  0     955741.257  -1274033.768  -6708946.627
10 0 59787  85782.000000  0     959646.687  -2162487.112  -6476720.963
10 0 59787  85902.000000  0     931708.669  -3013264.956  -6131484.194
10 0 59787  86022.000000  0     873193.425  -3811044.070  -5679185.829
10 0 59787  86142.000000  0     786155.450  -4541418.158  -5127637.168
10 0 59787  86262.000000  0     673386.568  -5191159.362  -4486387.516
10 0 59787  86382.000000  0     538347.302  -5748464.184  -3766570.532
10 0 59788    102.000000  0     385082.011  -6203177.581  -2980719.836
10 0 59788    222.000000  0     218119.602  -6546989.437  -2142557.477
10 0 59788    342.000000  0      42361.898  -6773600.068  -1266757.316
10 0 59788    462.000000  0    -137038.308  -6878848.014   -368686.196
10 0 59788    582.000000  0    -314806.360  -6860796.028    535870.482
10 0 59788    702.000000  0    -485678.820  -6719773.721   1430992.815
10 0 59788    822.000000  0    -644537.183  -6458375.520   2300915.493
10 0 59788    942.000000  0    -786538.706  -6081412.087   3130315.310
10 0 59788   1062.000000  0    -907239.693  -5595815.443   3904589.806
10 0 59788   1182.000000  0   -1002709.787  -5010502.448   4610118.415
10 0 59788   1302.000000  0   -1069634.338  -4336201.792   5234503.677
10 0 59788   1422.000000  0   -1105401.288  -3585248.272   5766788.980
10 0 59788   1542.000000  0   -1108171.992  -2771346.757   6197648.623
10 0 59788   1662.000000  0   -1076933.043  -1909313.530   6519544.147
10 0 59788   1782.000000  0   -1011529.176  -1014803.261   6726849.336
10 0 59788   1902.000000  0    -912677.807   -104022.547   6815943.914
10 0 59788   2022.000000  0    -781964.217    806564.384   6785272.702
10 0 59788   2142.000000  0    -621815.985   1700532.912   6635371.463
10 0 59788   2262.000000  0    -435457.762   2561793.948   6368858.013
10 0 59788   2382.000000  0    -226847.463   3374883.408   5990389.247
10 0 59788   2502.000000  0       -595.358   4125241.680   5506584.690
10 0 59788   2622.000000  0     238133.175   4799478.015   4925916.265
10 0 59788   2742.000000  0     483730.169   5385616.531   4258566.534
99
